CUBESAT XI-IV (CO-57)   
1 27848U 03031J   25095.46127324  .00000702  00000+0  32920-3 0  9993
2 27848  98.6816 104.6246 0010267  39.8023 320.3906 14.23265895129104
MOZHAYETS 4 (RS-22)     
1 27939U 03042A   25096.58326486  .00003094  00000+0  49966-3 0  9995
2 27939  98.3223 264.5155 0011090 207.5168 227.6611 14.72104221151418
IRS-P6 (RESOURCESAT-1)  
1 28051U 03046A   25096.51445339  .00000445  00000+0  16389-3 0  9997
2 28051  98.2489 148.0108 0063925 210.5832 281.0158 14.35935064117886
SAUDISAT 2              
1 28371U 04025F   25096.51552358  .00000885  00000+0  21041-3 0  9999
2 28371  98.5221  81.0627 0024496 195.3597 164.6859 14.56244093102222
COSMOS 2407             
1 28380U 04028A   25095.85182370  .00000127  00000+0  11377-3 0  9991
2 28380  82.9630  38.6913 0040177  37.1977  16.1086 13.76282691 39722
COSMOS 2414             
1 28521U 05002A   25096.51155153  .00000139  00000+0  10261-3 0  9998
2 28521  82.9543  13.9107 0041125 133.1183 227.3433 13.87865480 23587
INMARSAT 4-F1           
1 28628U 05009A   25096.52475220  .00000019  00000+0  00000+0 0  9997
2 28628   4.6112  42.0874 0002760 353.4058 166.5489  1.00273007 73289
HAMSAT (VO-52)          
1 28650U 05017B   25095.91625441  .00011768  00000+0  84464-3 0  9998
2 28650  98.0056  96.7506 0024010  75.1951 285.1931 15.04251634 80906
NOAA 18                 
1 28654U 05018A   25096.49422328  .00000443  00000+0  25811-3 0  9995
2 28654  98.8436 176.6887 0013227 313.9439  46.0642 14.13567282 24697
SJ-7                    
1 28737U 05024A   25095.77875189  .00016916  00000+0  94472-3 0  9992
2 28737  97.7643 110.7961 0020786 102.4062 257.9496 15.13410621 81698
CUBESAT XI-V            
1 28895U 05043F   25096.36855703  .00005305  00000+0  87769-3 0  9995
2 28895  98.2382 239.9645 0015502 147.8152 212.4003 14.70667913 37731
CLOUDSAT                
1 29107U 06016A   25096.53612983  .00003135  00000+0  37490-3 0  9998
2 29107  98.4249 104.0174 0004159 313.9185  46.1685 14.84958619  9827
CALIPSO                 
1 29108U 06016B   25096.53175765  .00002419  00000+0  43138-3 0  9991
2 29108  98.4466  92.6545 0001372 106.6506 253.4848 14.67979690  8973
HINODE (SOLAR-B)        
1 29479U 06041A   25096.06638553  .00001726  00000+0  31086-3 0  9996
2 29479  98.0766 113.3804 0016534 231.0289 128.9443 14.67745917990733
METOP-A                 
1 29499U 06044A   25095.93257819  .00004277  00000+0  51215-3 0  9998
2 29499  98.3285 184.8979 0180390  21.7277  30.3226 14.73708099961003
SHIJIAN-6 02B (SJ-6 02B)
1 29506U 06046B   25096.53962921  .00004870  00000+0  40108-3 0  9991
2 29506  97.7107 124.6870 0002123  96.7890 263.3574 14.99540376  5261
DMSP 5D-3 F17 (USA 191) 
1 29522U 06050A   25096.49889624  .00000408  00000+0  23411-3 0  9998
2 29522  98.7419 107.0317 0009286 217.4646 142.5881 14.14804282950663
LAPAN-TUBSAT            
1 29709U 07001A   25096.53165604  .00001626  00000+0  19613-3 0  9994
2 29709  98.1063  81.8997 0012725 160.5108 199.6595 14.85196210986336
HAIYANG-1B              
1 31113U 07010A   25095.84076240  .00000310  00000+0  13378-3 0  9997
2 31113  98.3127  90.7694 0014700  60.8578 299.4075 14.30863731938082
BEIDOU-2 M1             
1 31115U 07011A   25095.27967885 -.00000019  00000+0  00000+0 0  9992
2 31115  51.1026 233.8309 0001774  29.7902 330.1786  1.77349229 68381
CAPE-1                  
1 31130U 07012P   25095.82859874  .00005374  00000+0  10018-2 0  9990
2 31130  98.3913  55.7224 0086152 356.8309   3.2335 14.63070643954350
CBERS 2B                
1 32062U 07042A   25096.45031079  .00000725  00000+0  23693-3 0  9996
2 32062  98.3420  45.1882 0030468 208.1855 262.8154 14.41129365921836
COSMO-SKYMED 2          
1 32376U 07059A   25096.50300110  .00001443  00000+0  18779-3 0  9990
2 32376  97.8873 281.4431 0001317  84.3438 275.7925 14.82166321937392
CARTOSAT-2A             
1 32783U 08021A   25096.51242825  .00001922  00000+0  26880-3 0  9995
2 32783  97.8222 153.6926 0012489  90.4501 269.8142 14.78666129914354
CUTE-1.7+APD II (CO-65) 
1 32785U 08021C   25095.87208882  .00013458  00000+0  99051-3 0  9997
2 32785  97.7782  66.6182 0011668  73.1683 287.0820 15.03440649919356
COMPASS-1               
1 32787U 08021E   25096.48246681  .00059781  00000+0  15944-2 0  9993
2 32787  97.6450  83.6781 0002637 201.9996 158.1135 15.37931881922426
AAUSAT-II               
1 32788U 08021F   25096.49504332  .00234942  00000+0  22748-2 0  9999
2 32788  97.6035  91.4185 0007598 135.7820 224.4048 15.65622280923390
SEEDS II (CO-66)        
1 32791U 08021J   25096.49133565  .00022897  00000+0  11744-2 0  9997
2 32791  97.7242  75.2108 0006008  55.3080 304.8717 15.16538847920855
YUBILEINY (RS-30)       
1 32953U 08025A   25096.50150771  .00000063  00000+0  38284-3 0  9991
2 32953  82.4980 267.0340 0019564 183.0823 177.0140 12.43161688765577
FENGYUN 3A              
1 32958U 08026A   25096.44992947  .00000389  00000+0  20551-3 0  9998
2 32958  98.6421  41.7056 0007865 312.6143  47.4369 14.19412647873558
HUANJING 1A (HJ-1A)     
1 33320U 08041A   25096.49017654  .00003478  00000+0  43888-3 0  9997
2 33320  97.6407  95.6326 0020955 128.7815 231.5275 14.82395297893779
HUANJING 1B (HJ-1B)     
1 33321U 08041B   25096.50179155  .00002444  00000+0  31052-3 0  9997
2 33321  97.6303  99.8978 0037447 173.4799 186.6910 14.82026367893793
SHIJIAN-6 03A (SJ-6 03A)
1 33408U 08053A   25096.22993269  .00014569  00000+0  87518-3 0  9994
2 33408  97.8783 110.2787 0014955  73.2863 287.0006 15.10911131897078
SHIJIAN-6 03B (SJ-6 03B)
1 33409U 08053B   25096.50651163  .00007213  00000+0  55118-3 0  9999
2 33409  97.8721 104.3383 0020884  71.4884 288.8607 15.02087490897145
CHUANGXIN 1-02 (CX-1-02)
1 33434U 08056B   25096.50274441  .00000239  00000+0  10979-3 0  9997
2 33434  98.6528 121.1879 0013892 347.1415  12.9410 14.30020228856585
PRISM (HITOMI)          
1 33493U 09002B   25096.51240320  .00846539  29034-3  30107-2 0  9991
2 33493  98.1408 183.8555 0011087 268.2886  91.7114 15.88858682884154
STARS (KUKAI)           
1 33498U 09002G   25095.78170969  .00009640  00000+0  97728-3 0  9990
2 33498  98.1217  22.9998 0009403 160.7863 199.3711 14.91088675873191
KKS-1 (KISEKI)          
1 33499U 09002H   25095.88757092  .00004387  00000+0  56873-3 0  9999
2 33499  98.1224   7.0792 0006611 266.6391  93.4065 14.81319109871413
NOAA 19                 
1 33591U 09005A   25096.49021177  .00000371  00000+0  22168-3 0  9990
2 33591  99.0029 160.8211 0013930 180.7115 179.4039 14.13332511833056
YAOGAN-6                
1 34839U 09021A   25096.45840822  .00163926  00000+0  73499-3 0  9995
2 34839  97.1981  74.0932 0010890 142.5020 217.7012 15.83634349889215
UK-DMC 2                
1 35683U 09041C   25096.50310643  .00002390  00000+0  36292-3 0  9991
2 35683  97.8203 239.1500 0001116 102.7081 257.4253 14.74947306842225
METEOR-M 1              
1 35865U 09049A   25096.52159766  .00000334  00000+0  16794-3 0  9991
2 35865  98.6790  58.7561 0003156 118.1827 241.9670 14.22993513807286
OCEANSAT-2              
1 35931U 09051A   25096.55064143  .00000072  00000+0  74655-4 0  9995
2 35931  98.2290 122.4123 0016547  34.7634 325.4611 13.99572252818259
SWISSCUBE               
1 35932U 09051B   25096.12674385  .00003326  00000+0  68618-3 0  9990
2 35932  98.4371 351.1417 0007954 124.4906 235.7046 14.61102905825347
BEESAT-1                
1 35933U 09051C   25095.93888977  .00002568  00000+0  53859-3 0  9991
2 35933  98.4299 351.4181 0006188 134.7254 225.4451 14.60550787825335
ITUPSAT1                
1 35935U 09051E   25095.69716270  .00002294  00000+0  49469-3 0  9990
2 35935  98.4394 350.7655 0008176 145.9295 214.2430 14.59362558824909
DMSP 5D-3 F18 (USA 210) 
1 35951U 09057A   25096.49319460  .00000575  00000+0  32242-3 0  9994
2 35951  98.8550  74.5823 0012161  55.6435 304.5887 14.14574305797820
PROBA-2                 
1 36037U 09059B   25096.11735836  .00000649  00000+0  16281-3 0  9997
2 36037  98.2375 280.8310 0013116 185.2311 174.8751 14.54500874818075
YAOGAN-7                
1 36110U 09069A   25096.52890151  .00001483  00000+0  21542-3 0  9990
2 36110  98.0651 338.7996 0025182   9.2071 350.9596 14.77300801825186
XIWANG-1 (HOPE-1)       
1 36122U 09072B   25095.86616704 -.00000023  00000+0  55491-4 0  9994
2 36122 100.3423  53.0274 0007755 148.9930 211.1642 13.16422215735467
RADUGA-1M 2             
1 36358U 10002A   25095.79182394 -.00000042  00000+0  00000+0 0  9997
2 36358   2.4783  84.3600 0007378 250.3881 347.7743  0.98967708 45697
COSMOS 2463             
1 36519U 10017A   25096.46317030  .00000111  00000+0  10637-3 0  9991
2 36519  82.9633 210.5755 0034825 261.4061 168.1271 13.71621310748150
CARTOSAT-2B             
1 36795U 10035A   25096.48092701  .00001871  00000+0  26156-3 0  9991
2 36795  97.8161 153.0815 0012325 163.2064 196.9558 14.78723727795396
AISSAT 1                
1 36797U 10035C   25096.18524977  .00006247  00000+0  58179-3 0  9997
2 36797  98.1444 334.6505 0010582  66.2979 293.9349 14.94620607799019
TISAT 1                 
1 36799U 10035E   25095.69871935  .00027154  00000+0  14736-2 0  9993
2 36799  98.0613   5.8005 0002722   1.7639 358.3601 15.14517673801140
YAOGAN-10               
1 36834U 10038A   25096.55746616  .00001823  00000+0  22511-3 0  9995
2 36834  97.9317 118.0213 0001722  93.9220  67.5223 14.84062068792490
SHIJIAN-6 04B (SJ-6 04B)
1 37180U 10051B   25096.50874962  .00002596  00000+0  22475-3 0  9993
2 37180  97.8591  93.0765 0010268 336.8667  23.2091 14.98013576790294
FENGYUN 3B              
1 37214U 10059A   25096.54490567  .00000219  00000+0  13748-3 0  9991
2 37214  99.0210 134.2879 0021750 346.1048 172.2114 14.14708528745728
COSMO-SKYMED 4          
1 37216U 10060A   25096.51571672  .00001264  00000+0  16536-3 0  9998
2 37216  97.8872 281.4599 0001646  89.8452 270.2950 14.82157033779948
